{
    "links": {
        "self": "http://www.neowsapp.com/rest/v1/neo/3836753?api_key=iIulBulltgU6a56xZRHN4H3l9WmuAYTsLGpBGhQ2"
    },
    "id": "3836753",
    "neo_reference_id": "3836753",
    "name": "(2018 XD2)",
    "designation": "2018 XD2",
    "nasa_jpl_url": "http://ssd.jpl.nasa.gov/sbdb.cgi?sstr=3836753",
    "absolute_magnitude_h": 21.8,
    "estimated_diameter": {
        "kilometers": {
            "estimated_diameter_min": 0.1160259082,
            "estimated_diameter_max": 0.2594418179
        },
        "meters": {
            "estimated_diameter_min": 116.0259082094,
            "estimated_diameter_max": 259.4418179074
        },
        "miles": {
            "estimated_diameter_min": 0.0720951346,
            "estimated_diameter_max": 0.1612096218
        },
        "feet": {
            "estimated_diameter_min": 380.6624406898,
            "estimated_diameter_max": 851.1870938635
        }
    },
    "is_potentially_hazardous_asteroid": false,
    "close_approach_data": [
        {
            "close_approach_date": "1993-06-13",
            "close_approach_date_full": "1993-Jun-13 00:02",
            "epoch_date_close_approach": 739929720000,
            "relative_velocity": {
                "kilometers_per_second": "9.7889408983",
                "kilometers_per_hour": "35240.1872337713",
                "miles_per_hour": "21896.8818953397"
            },
            "miss_distance": {
                "astronomical": "0.0630203545",
                "lunar": "24.5149179005",
                "kilometers": "9427710.799844915",
                "miles": "5858107.846953227"
            },
            "orbiting_body": "Mars"
        },
        {
            "close_approach_date": "1995-12-28",
            "close_approach_date_full": "1995-Dec-28 03:58",
            "epoch_date_close_approach": 820123080000,
            "relative_velocity": {
                "kilometers_per_second": "0.5538429472",
                "kilometers_per_hour": "1993.8346100602",
                "miles_per_hour": "1238.8912886788"
            },
            "miss_distance": {
                "astronomical": "0.3248043552",
                "lunar": "126.3488941728",
                "kilometers": "48590039.704643424",
                "miles": "30192450.6299262912"
            },
            "orbiting_body": "Earth"
        },
        {
            "close_approach_date": "2018-12-28",
            "close_approach_date_full": "2018-Dec-28 20:57",
            "epoch_date_close_approach": 1546030620000,
            "relative_velocity": {
                "kilometers_per_second": "0.5684258116",
                "kilometers_per_hour": "2046.3329216097",
                "miles_per_hour": "1271.5116978746"
            },
            "miss_distance": {
                "astronomical": "0.3284360351",
                "lunar": "127.7616176539",
                "kilometers": "49133331.282205237",
                "miles": "30530036.3621647906"
            },
            "orbiting_body": "Earth"
        },
        {
            "close_approach_date": "2041-12-26",
            "close_approach_date_full": "2041-Dec-26 16:10",
            "epoch_date_close_approach": 2271687000000,
            "relative_velocity": {
                "kilometers_per_second": "0.4825857362",
                "kilometers_per_hour": "1737.3086504323",
                "miles_per_hour": "1079.4960333756"
            },
            "miss_distance": {
                "astronomical": "0.329998258",
                "lunar": "128.369322362",
                "kilometers": "49367036.50051046",
                "miles": "30675254.050985948"
            },
            "orbiting_body": "Earth"
        },
        {
            "close_approach_date": "2042-04-25",
            "close_approach_date_full": "2042-Apr-25 11:05",
            "epoch_date_close_approach": 2282036700000,
            "relative_velocity": {
                "kilometers_per_second": "8.2007429488",
                "kilometers_per_hour": "29522.6746156455",
                "miles_per_hour": "18344.2419021493"
            },
            "miss_distance": {
                "astronomical": "0.0703071876",
                "lunar": "27.3494959764",
                "kilometers": "10517805.510650412",
                "miles": "6535461.2909512056"
            },
            "orbiting_body": "Mars"
        }
    ],
    "orbital_data": {
        "orbit_id": "7",
        "orbit_determination_date": "2019-02-03 07:03:16",
        "first_observation_date": "2018-12-09",
        "last_observation_date": "2019-02-03",
        "data_arc_in_days": 56,
        "observations_used": 38,
        "orbit_uncertainty": "6",
        "minimum_orbit_intersection": ".330405",
        "jupiter_tisserand_invariant": "3.731",
        "epoch_osculation": "2459000.5",
        "eccentricity": ".3593757267641065",
        "semi_major_axis": "2.022994625546099",
        "inclination": "5.465167551663954",
        "ascending_node_longitude": "357.0476075471619",
        "orbital_period": "1050.970486678033",
        "perihelion_distance": "1.295979461750588",
        "perihelion_argument": "98.30513764564881",
        "aphelion_distance": "2.750009789341609",
        "perihelion_time": "2458479.043780516308",
        "mean_anomaly": "178.6198959853748",
        "mean_motion": ".3425405418737384",
        "equinox": "J2000",
        "orbit_class": {
            "orbit_class_type": "AMO",
            "orbit_class_description": "Near-Earth asteroid orbits similar to that of 1221 Amor",
            "orbit_class_range": "1.017 AU < q (perihelion) < 1.3 AU"
        }
    },
    "is_sentry_object": false
}